{"epoch":1784799577,"count":18318,"objects":[{"id":"63740","name":"KUIPER-00027","type":"PAYLOAD","l1":"1 63740U 25088S   26203.44995941  .00000796  00000-0  13334-3 0  9990","l2":"2 63740  51.9004 219.6892 0000378  52.5301 307.5696 14.79941937 67577"},{"id":"63741","name":"KUIPER-00028","type":"PAYLOAD","l1":"1 63741U 25088T   26203.41887788  .00000409  00000-0  82603-4 0  9994","l2":"2 63741  51.8988 217.2763 0000344  56.7028 303.3967 14.79942269 68018"},{"id":"63742","name":"KUIPER-00029","type":"PAYLOAD","l1":"1 63742U 25088U   26203.73254988  .00001265  00000-0  19490-3 0  9994","l2":"2 63742  51.9004 214.5755 0000725 345.6230  14.4712 14.79948166 67602"},{"id":"63743","name":"KUIPER-00030","type":"PAYLOAD","l1":"1 63743U 25088V   26203.50132424  .00000383  00000-0  79179-4 0  9991","l2":"2 63743  51.9003 234.4228 0000254  77.8009 282.2982 14.79935550 67598"},{"id":"63744","name":"KUIPER-00031","type":"PAYLOAD","l1":"1 63744U 25088W   26203.83335648  .00067013  00000-0  87990-2 0  9992","l2":"2 63744  51.8988 217.9762 0000671  59.2068   5.5664 14.79610814  5342"},{"id":"63745","name":"KUIPER-00032","type":"PAYLOAD","l1":"1 63745U 25088X   26203.38403549  .00015517  00000-0  37814-3 0  9992","l2":"2 63745  51.8659  90.9302 0002993 231.3734 128.6987 15.41085670 70296"},{"id":"63746","name":"KUIPER-00033","type":"PAYLOAD","l1":"1 63746U 25088Y   26203.51891608  .00002149  00000-0  31081-3 0  9992","l2":"2 63746  51.9000 249.3684 0000208  66.6447 293.4537 14.79937581 67585"},{"id":"63747","name":"KUIPER-00034","type":"PAYLOAD","l1":"1 63747U 25088Z   26203.76196058  .00000338  00000-0  73287-4 0  9990","l2":"2 63747  51.9010 210.8263 0000606  56.8168 303.2853 14.79936265 67822"},{"id":"63748","name":"KUIPER-00035","type":"PAYLOAD","l1":"1 63748U 25088AA  26203.46487286  .00000522  00000-0  97449-4 0  9995","l2":"2 63748  51.8991 237.1143 0000265  58.5295 301.5693 14.79935640 67481"},{"id":"63749","name":"KUIPER-00037","type":"PAYLOAD","l1":"1 63749U 25088AB  26203.45776156  .00000553  00000-0  10153-3 0  9992","l2":"2 63749  51.8999 236.0027 0000283  44.2369 315.8616 14.79943833 68288"},{"id":"63750","name":"KUIPER-00038","type":"PAYLOAD","l1":"1 63750U 25088AC  26203.78491884  .00001785  00000-0  26303-3 0  9994","l2":"2 63750  51.9015 220.7227 0000408  83.4395 276.6613 14.79948582 67528"},{"id":"64500","name":"KUIPER-00039","type":"PAYLOAD","l1":"1 64500U 25134A   26203.82501801  .00003880  00000-0  53742-3 0  9991","l2":"2 64500  51.9024 355.5425 0000613 124.7855 235.3165 14.79949886 60083"},{"id":"64501","name":"KUIPER-00040","type":"PAYLOAD","l1":"1 64501U 25134B   26203.44281928  .00003195  00000-0  44776-3 0  9991","l2":"2 64501  51.8993   7.3081 0000657 124.8728 235.2296 14.79952153 59887"},{"id":"64502","name":"KUIPER-00041","type":"PAYLOAD","l1":"1 64502U 25134C   26203.47387216  .00003107  00000-0  43618-3 0  9999","l2":"2 64502  51.8999   9.5573 0000590 114.3857 245.7167 14.79950431 59854"},{"id":"64503","name":"KUIPER-00042","type":"PAYLOAD","l1":"1 64503U 25134D   26203.85067884  .00003473  00000-0  48415-3 0  9994","l2":"2 64503  51.9006   2.8664 0000594 140.5074 219.5932 14.79951537 59989"},{"id":"64504","name":"KUIPER-00043","type":"PAYLOAD","l1":"1 64504U 25134E   26203.79122313  .00003633  00000-0  50504-3 0  9997","l2":"2 64504  51.9030 355.6328 0000565 131.7102 228.3909 14.79958097 60088"}]}