{"fetched_at":"2026-07-23T07:05:17.272Z","source":"https://celestrak.org/NORAD/elements/gp.php?GROUP=kuiper&FORMAT=JSON","constellation":"kuiper","records":[{"OBJECT_NAME":"KUIPER-00027","OBJECT_ID":"2025-088S","EPOCH":"2026-07-22T10:47:56.493024","CLASSIFICATION_TYPE":"U","MEAN_MOTION":14.79941937,"ECCENTRICITY":0.00003779,"INCLINATION":51.9004,"RA_OF_ASC_NODE":219.6892,"ARG_OF_PERICENTER":52.5301,"MEAN_ANOMALY":307.5696,"EPHEMERIS_TYPE":0,"NORAD_CAT_ID":63740,"ELEMENT_SET_NO":999,"REV_AT_EPOCH":6757,"BSTAR":0.00013333663,"MEAN_MOTION_DOT":0.00000796,"MEAN_MOTION_DDOT":0},{"OBJECT_NAME":"KUIPER-00028","OBJECT_ID":"2025-088T","EPOCH":"2026-07-22T10:03:11.048832","CLASSIFICATION_TYPE":"U","MEAN_MOTION":14.79942269,"ECCENTRICITY":0.0000344,"INCLINATION":51.8988,"RA_OF_ASC_NODE":217.2763,"ARG_OF_PERICENTER":56.7028,"MEAN_ANOMALY":303.3967,"EPHEMERIS_TYPE":0,"NORAD_CAT_ID":63741,"ELEMENT_SET_NO":999,"REV_AT_EPOCH":6801,"BSTAR":0.000082603048,"MEAN_MOTION_DOT":0.00000409,"MEAN_MOTION_DDOT":0},{"OBJECT_NAME":"KUIPER-00029","OBJECT_ID":"2025-088U","EPOCH":"2026-07-22T17:34:52.309632","CLASSIFICATION_TYPE":"U","MEAN_MOTION":14.79948166,"ECCENTRICITY":0.00007253,"INCLINATION":51.9004,"RA_OF_ASC_NODE":214.5755,"ARG_OF_PERICENTER":345.623,"MEAN_ANOMALY":14.4712,"EPHEMERIS_TYPE":0,"NORAD_CAT_ID":63742,"ELEMENT_SET_NO":999,"REV_AT_EPOCH":6760,"BSTAR":0.00019490044,"MEAN_MOTION_DOT":0.00001265,"MEAN_MOTION_DDOT":0},{"OBJECT_NAME":"KUIPER-00030","OBJECT_ID":"2025-088V","EPOCH":"2026-07-22T12:01:54.414336","CLASSIFICATION_TYPE":"U","MEAN_MOTION":14.7993555,"ECCENTRICITY":0.00002542,"INCLINATION":51.9003,"RA_OF_ASC_NODE":234.4228,"ARG_OF_PERICENTER":77.8009,"MEAN_ANOMALY":282.2982,"EPHEMERIS_TYPE":0,"NORAD_CAT_ID":63743,"ELEMENT_SET_NO":999,"REV_AT_EPOCH":6759,"BSTAR":0.000079179286,"MEAN_MOTION_DOT":0.00000383,"MEAN_MOTION_DDOT":0},{"OBJECT_NAME":"KUIPER-00031","OBJECT_ID":"2025-088W","EPOCH":"2026-07-22T20:00:01.999872","CLASSIFICATION_TYPE":"U","MEAN_MOTION":14.79610814,"ECCENTRICITY":0.00006712,"INCLINATION":51.8988,"RA_OF_ASC_NODE":217.9762,"ARG_OF_PERICENTER":59.2068,"MEAN_ANOMALY":5.5664,"EPHEMERIS_TYPE":0,"NORAD_CAT_ID":63744,"ELEMENT_SET_NO":999,"REV_AT_EPOCH":534,"BSTAR":0.0087989715,"MEAN_MOTION_DOT":0.00067013,"MEAN_MOTION_DDOT":0},{"OBJECT_NAME":"KUIPER-00032","OBJECT_ID":"2025-088X","EPOCH":"2026-07-22T09:13:00.666336","CLASSIFICATION_TYPE":"U","MEAN_MOTION":15.4108567,"ECCENTRICITY":0.00029929,"INCLINATION":51.8659,"RA_OF_ASC_NODE":90.9302,"ARG_OF_PERICENTER":231.3734,"MEAN_ANOMALY":128.6987,"EPHEMERIS_TYPE":0,"NORAD_CAT_ID":63745,"ELEMENT_SET_NO":999,"REV_AT_EPOCH":7029,"BSTAR":0.00037814018,"MEAN_MOTION_DOT":0.00015517,"MEAN_MOTION_DDOT":0},{"OBJECT_NAME":"KUIPER-00033","OBJECT_ID":"2025-088Y","EPOCH":"2026-07-22T12:27:14.349312","CLASSIFICATION_TYPE":"U","MEAN_MOTION":14.79937581,"ECCENTRICITY":0.00002081,"INCLINATION":51.9,"RA_OF_ASC_NODE":249.3684,"ARG_OF_PERICENTER":66.6447,"MEAN_ANOMALY":293.4537,"EPHEMERIS_TYPE":0,"NORAD_CAT_ID":63746,"ELEMENT_SET_NO":999,"REV_AT_EPOCH":6758,"BSTAR":0.00031081071,"MEAN_MOTION_DOT":0.00002149,"MEAN_MOTION_DDOT":0},{"OBJECT_NAME":"KUIPER-00034","OBJECT_ID":"2025-088Z","EPOCH":"2026-07-22T18:17:13.394112","CLASSIFICATION_TYPE":"U","MEAN_MOTION":14.79936265,"ECCENTRICITY":0.00006062,"INCLINATION":51.901,"RA_OF_ASC_NODE":210.8263,"ARG_OF_PERICENTER":56.8168,"MEAN_ANOMALY":303.2853,"EPHEMERIS_TYPE":0,"NORAD_CAT_ID":63747,"ELEMENT_SET_NO":999,"REV_AT_EPOCH":6782,"BSTAR":0.000073286749,"MEAN_MOTION_DOT":0.00000338,"MEAN_MOTION_DDOT":0},{"OBJECT_NAME":"KUIPER-00035","OBJECT_ID":"2025-088AA","EPOCH":"2026-07-22T11:09:25.015104","CLASSIFICATION_TYPE":"U","MEAN_MOTION":14.7993564,"ECCENTRICITY":0.0000265,"INCLINATION":51.8991,"RA_OF_ASC_NODE":237.1143,"ARG_OF_PERICENTER":58.5295,"MEAN_ANOMALY":301.5693,"EPHEMERIS_TYPE":0,"NORAD_CAT_ID":63748,"ELEMENT_SET_NO":999,"REV_AT_EPOCH":6748,"BSTAR":0.00009744879,"MEAN_MOTION_DOT":0.00000522,"MEAN_MOTION_DDOT":0},{"OBJECT_NAME":"KUIPER-00037","OBJECT_ID":"2025-088AB","EPOCH":"2026-07-22T10:59:10.598784","CLASSIFICATION_TYPE":"U","MEAN_MOTION":14.79943833,"ECCENTRICITY":0.00002832,"INCLINATION":51.8999,"RA_OF_ASC_NODE":236.0027,"ARG_OF_PERICENTER":44.2369,"MEAN_ANOMALY":315.8616,"EPHEMERIS_TYPE":0,"NORAD_CAT_ID":63749,"ELEMENT_SET_NO":999,"REV_AT_EPOCH":6828,"BSTAR":0.00010153211,"MEAN_MOTION_DOT":0.00000553,"MEAN_MOTION_DDOT":0},{"OBJECT_NAME":"KUIPER-00038","OBJECT_ID":"2025-088AC","EPOCH":"2026-07-22T18:50:16.987776","CLASSIFICATION_TYPE":"U","MEAN_MOTION":14.79948582,"ECCENTRICITY":0.00004079,"INCLINATION":51.9015,"RA_OF_ASC_NODE":220.7227,"ARG_OF_PERICENTER":83.4395,"MEAN_ANOMALY":276.6613,"EPHEMERIS_TYPE":0,"NORAD_CAT_ID":63750,"ELEMENT_SET_NO":999,"REV_AT_EPOCH":6752,"BSTAR":0.00026302721,"MEAN_MOTION_DOT":0.00001785,"MEAN_MOTION_DDOT":0},{"OBJECT_NAME":"KUIPER-00039","OBJECT_ID":"2025-134A","EPOCH":"2026-07-22T19:48:01.556064","CLASSIFICATION_TYPE":"U","MEAN_MOTION":14.79949886,"ECCENTRICITY":0.00006125,"INCLINATION":51.9024,"RA_OF_ASC_NODE":355.5425,"ARG_OF_PERICENTER":124.7855,"MEAN_ANOMALY":235.3165,"EPHEMERIS_TYPE":0,"NORAD_CAT_ID":64500,"ELEMENT_SET_NO":999,"REV_AT_EPOCH":6008,"BSTAR":0.00053742464,"MEAN_MOTION_DOT":0.0000388,"MEAN_MOTION_DDOT":0},{"OBJECT_NAME":"KUIPER-00040","OBJECT_ID":"2025-134B","EPOCH":"2026-07-22T10:37:39.585792","CLASSIFICATION_TYPE":"U","MEAN_MOTION":14.79952153,"ECCENTRICITY":0.00006569,"INCLINATION":51.8993,"RA_OF_ASC_NODE":7.3081,"ARG_OF_PERICENTER":124.8728,"MEAN_ANOMALY":235.2296,"EPHEMERIS_TYPE":0,"NORAD_CAT_ID":64501,"ELEMENT_SET_NO":999,"REV_AT_EPOCH":5988,"BSTAR":0.00044776477,"MEAN_MOTION_DOT":0.00003195,"MEAN_MOTION_DDOT":0},{"OBJECT_NAME":"KUIPER-00041","OBJECT_ID":"2025-134C","EPOCH":"2026-07-22T11:22:22.554624","CLASSIFICATION_TYPE":"U","MEAN_MOTION":14.79950431,"ECCENTRICITY":0.00005903,"INCLINATION":51.8999,"RA_OF_ASC_NODE":9.5573,"ARG_OF_PERICENTER":114.3857,"MEAN_ANOMALY":245.7167,"EPHEMERIS_TYPE":0,"NORAD_CAT_ID":64502,"ELEMENT_SET_NO":999,"REV_AT_EPOCH":5985,"BSTAR":0.00043618334,"MEAN_MOTION_DOT":0.00003107,"MEAN_MOTION_DDOT":0},{"OBJECT_NAME":"KUIPER-00042","OBJECT_ID":"2025-134D","EPOCH":"2026-07-22T20:24:58.651776","CLASSIFICATION_TYPE":"U","MEAN_MOTION":14.79951537,"ECCENTRICITY":0.00005935,"INCLINATION":51.9006,"RA_OF_ASC_NODE":2.8664,"ARG_OF_PERICENTER":140.5074,"MEAN_ANOMALY":219.5932,"EPHEMERIS_TYPE":0,"NORAD_CAT_ID":64503,"ELEMENT_SET_NO":999,"REV_AT_EPOCH":5998,"BSTAR":0.00048415421,"MEAN_MOTION_DOT":0.00003473,"MEAN_MOTION_DDOT":0},{"OBJECT_NAME":"KUIPER-00043","OBJECT_ID":"2025-134E","EPOCH":"2026-07-22T18:59:21.678432","CLASSIFICATION_TYPE":"U","MEAN_MOTION":14.79958097,"ECCENTRICITY":0.00005654,"INCLINATION":51.903,"RA_OF_ASC_NODE":355.6328,"ARG_OF_PERICENTER":131.7102,"MEAN_ANOMALY":228.3909,"EPHEMERIS_TYPE":0,"NORAD_CAT_ID":64504,"ELEMENT_SET_NO":999,"REV_AT_EPOCH":6008,"BSTAR":0.00050504062,"MEAN_MOTION_DOT":0.00003633,"MEAN_MOTION_DDOT":0}]}
